SL-3 R/B                
1 13403U 82079B   26031.77985303  .00005681  00000+0  22979-3 0  9992
2 13403  81.1437 236.6466 0024241 292.3622  67.5042 15.24269360372070
SL-14 R/B               
1 13553U 82092B   26031.84353770  .00000677  00000+0  73216-4 0  9999
2 13553  82.5694 175.8520 0021715  65.3976  87.0496 14.86622088323459
SL-3 R/B                
1 13819U 83010B   26031.53684771  .00013004  00000+0  27308-3 0  9997
2 13819  81.1013  47.7558 0017284 170.9006 189.2555 15.45054491352204
SL-3 R/B                
1 14208U 83075B   26031.79553057  .00011599  00000+0  31563-3 0  9996
2 14208  97.6117  35.0109 0022312   7.4501 352.7070 15.37437819324486
COSMOS 1536             
1 14699U 84013A   26031.80924831  .00005974  00000+0  24963-3 0  9993
2 14699  82.5476 144.4861 0015430  55.8945 304.3754 15.23311780267002
SL-14 R/B               
1 14820U 84027B   26031.79177235  .00000531  00000+0  57813-4 0  9995
2 14820  82.5413 279.6247 0019521  95.1517 265.1927 14.85938906242152
SL-8 R/B                
1 15483U 85006B   26031.84962256  .00000307  00000+0  11041-3 0  9993
2 15483  74.0477 328.9350 0019681 253.5179 165.0012 14.37762907148733
SL-12 R/B(2)            
1 15772U 85042D   26031.85338943  .00000185  00000+0  10465-3 0  9998
2 15772  71.1081 165.5503 0035416 186.6904 339.4445 14.21970798109156
SL-14 R/B               
1 15945U 85069B   26031.51845225  .00000579  00000+0  62740-4 0  9999
2 15945  82.5240  59.8954 0017717 319.3483  40.6410 14.86388126167311
SL-16 R/B               
1 16182U 85097B   26031.85134911  .00000278  00000+0  16330-3 0  9993
2 16182  71.0011 218.1052 0009242 303.0636 154.1841 14.16593779 82014
SL-14 R/B               
1 16496U 86006B   26031.77445698  .00000913  00000+0  94219-4 0  9999
2 16496  82.5279 294.4804 0077600  36.0335 324.6077 14.86759814143721
COSMOS 1743             
1 16719U 86034A   26031.69178154  .00031097  00000+0  44803-3 0  9999
2 16719  82.5349 112.5753 0005393  74.0788 286.1060 15.55845595174495
