CCSDS_OMM_VERS = 2.0
CREATION_DATE  = 
ORIGINATOR     = 

OBJECT_NAME    = SL-3 R/B
OBJECT_ID      = 1982-079B
CENTER_NAME    = EARTH
REF_FRAME      = TEME
TIME_SYSTEM    = UTC
MEAN_ELEMENT_THEORY = SGP/SGP4

EPOCH          = 2026-01-31T18:42:59.301792
MEAN_MOTION    = 15.24269360
ECCENTRICITY   = .0024241
INCLINATION    = 81.1437
RA_OF_ASC_NODE = 236.6466
ARG_OF_PERICENTER = 292.3622
MEAN_ANOMALY   = 67.5042

EPHEMERIS_TYPE = 0
CLASSIFICATION_TYPE = U
NORAD_CAT_ID   = 13403
ELEMENT_SET_NO = 999
REV_AT_EPOCH   = 37207
BSTAR          = .22979E-3
MEAN_MOTION_DOT = .5681E-4
MEAN_MOTION_DDOT = 0

CCSDS_OMM_VERS = 2.0
CREATION_DATE  = 
ORIGINATOR     = 

OBJECT_NAME    = SL-14 R/B
OBJECT_ID      = 1982-092B
CENTER_NAME    = EARTH
REF_FRAME      = TEME
TIME_SYSTEM    = UTC
MEAN_ELEMENT_THEORY = SGP/SGP4

EPOCH          = 2026-01-31T20:14:41.657280
MEAN_MOTION    = 14.86622088
ECCENTRICITY   = .0021715
INCLINATION    = 82.5694
RA_OF_ASC_NODE = 175.8520
ARG_OF_PERICENTER = 65.3976
MEAN_ANOMALY   = 87.0496

EPHEMERIS_TYPE = 0
CLASSIFICATION_TYPE = U
NORAD_CAT_ID   = 13553
ELEMENT_SET_NO = 999
REV_AT_EPOCH   = 32345
BSTAR          = .73216E-4
MEAN_MOTION_DOT = .677E-5
MEAN_MOTION_DDOT = 0

CCSDS_OMM_VERS = 2.0
CREATION_DATE  = 
ORIGINATOR     = 

OBJECT_NAME    = SL-3 R/B
OBJECT_ID      = 1983-010B
CENTER_NAME    = EARTH
REF_FRAME      = TEME
TIME_SYSTEM    = UTC
MEAN_ELEMENT_THEORY = SGP/SGP4

EPOCH          = 2026-01-31T12:53:03.642144
MEAN_MOTION    = 15.45054491
ECCENTRICITY   = .0017284
INCLINATION    = 81.1013
RA_OF_ASC_NODE = 47.7558
ARG_OF_PERICENTER = 170.9006
MEAN_ANOMALY   = 189.2555

EPHEMERIS_TYPE = 0
CLASSIFICATION_TYPE = U
NORAD_CAT_ID   = 13819
ELEMENT_SET_NO = 999
REV_AT_EPOCH   = 35220
BSTAR          = .27308E-3
MEAN_MOTION_DOT = .13004E-3
MEAN_MOTION_DDOT = 0

CCSDS_OMM_VERS = 2.0
CREATION_DATE  = 
ORIGINATOR     = 

OBJECT_NAME    = SL-3 R/B
OBJECT_ID      = 1983-075B
CENTER_NAME    = EARTH
REF_FRAME      = TEME
TIME_SYSTEM    = UTC
MEAN_ELEMENT_THEORY = SGP/SGP4

EPOCH          = 2026-01-31T19:05:33.841248
MEAN_MOTION    = 15.37437819
ECCENTRICITY   = .0022312
INCLINATION    = 97.6117
RA_OF_ASC_NODE = 35.0109
ARG_OF_PERICENTER = 7.4501
MEAN_ANOMALY   = 352.7070

EPHEMERIS_TYPE = 0
CLASSIFICATION_TYPE = U
NORAD_CAT_ID   = 14208
ELEMENT_SET_NO = 999
REV_AT_EPOCH   = 32448
BSTAR          = .31563E-3
MEAN_MOTION_DOT = .11599E-3
MEAN_MOTION_DDOT = 0

CCSDS_OMM_VERS = 2.0
CREATION_DATE  = 
ORIGINATOR     = 

OBJECT_NAME    = COSMOS 1536
OBJECT_ID      = 1984-013A
CENTER_NAME    = EARTH
REF_FRAME      = TEME
TIME_SYSTEM    = UTC
MEAN_ELEMENT_THEORY = SGP/SGP4

EPOCH          = 2026-01-31T19:25:19.053984
MEAN_MOTION    = 15.23311780
ECCENTRICITY   = .001543
INCLINATION    = 82.5476
RA_OF_ASC_NODE = 144.4861
ARG_OF_PERICENTER = 55.8945
MEAN_ANOMALY   = 304.3754

EPHEMERIS_TYPE = 0
CLASSIFICATION_TYPE = U
NORAD_CAT_ID   = 14699
ELEMENT_SET_NO = 999
REV_AT_EPOCH   = 26700
BSTAR          = .24963E-3
MEAN_MOTION_DOT = .5974E-4
MEAN_MOTION_DDOT = 0

CCSDS_OMM_VERS = 2.0
CREATION_DATE  = 
ORIGINATOR     = 

OBJECT_NAME    = SL-14 R/B
OBJECT_ID      = 1984-027B
CENTER_NAME    = EARTH
REF_FRAME      = TEME
TIME_SYSTEM    = UTC
MEAN_ELEMENT_THEORY = SGP/SGP4

EPOCH          = 2026-01-31T19:00:09.131040
MEAN_MOTION    = 14.85938906
ECCENTRICITY   = .0019521
INCLINATION    = 82.5413
RA_OF_ASC_NODE = 279.6247
ARG_OF_PERICENTER = 95.1517
MEAN_ANOMALY   = 265.1927

EPHEMERIS_TYPE = 0
CLASSIFICATION_TYPE = U
NORAD_CAT_ID   = 14820
ELEMENT_SET_NO = 999
REV_AT_EPOCH   = 24215
BSTAR          = .57813E-4
MEAN_MOTION_DOT = .531E-5
MEAN_MOTION_DDOT = 0

CCSDS_OMM_VERS = 2.0
CREATION_DATE  = 
ORIGINATOR     = 

OBJECT_NAME    = SL-8 R/B
OBJECT_ID      = 1985-006B
CENTER_NAME    = EARTH
REF_FRAME      = TEME
TIME_SYSTEM    = UTC
MEAN_ELEMENT_THEORY = SGP/SGP4

EPOCH          = 2026-01-31T20:23:27.389184
MEAN_MOTION    = 14.37762907
ECCENTRICITY   = .0019681
INCLINATION    = 74.0477
RA_OF_ASC_NODE = 328.9350
ARG_OF_PERICENTER = 253.5179
MEAN_ANOMALY   = 165.0012

EPHEMERIS_TYPE = 0
CLASSIFICATION_TYPE = U
NORAD_CAT_ID   = 15483
ELEMENT_SET_NO = 999
REV_AT_EPOCH   = 14873
BSTAR          = .11041E-3
MEAN_MOTION_DOT = .307E-5
MEAN_MOTION_DDOT = 0

CCSDS_OMM_VERS = 2.0
CREATION_DATE  = 
ORIGINATOR     = 

OBJECT_NAME    = SL-12 R/B(2)
OBJECT_ID      = 1985-042D
CENTER_NAME    = EARTH
REF_FRAME      = TEME
TIME_SYSTEM    = UTC
MEAN_ELEMENT_THEORY = SGP/SGP4

EPOCH          = 2026-01-31T20:28:52.846752
MEAN_MOTION    = 14.21970798
ECCENTRICITY   = .0035416
INCLINATION    = 71.1081
RA_OF_ASC_NODE = 165.5503
ARG_OF_PERICENTER = 186.6904
MEAN_ANOMALY   = 339.4445

EPHEMERIS_TYPE = 0
CLASSIFICATION_TYPE = U
NORAD_CAT_ID   = 15772
ELEMENT_SET_NO = 999
REV_AT_EPOCH   = 10915
BSTAR          = .10465E-3
MEAN_MOTION_DOT = .185E-5
MEAN_MOTION_DDOT = 0

CCSDS_OMM_VERS = 2.0
CREATION_DATE  = 
ORIGINATOR     = 

OBJECT_NAME    = SL-14 R/B
OBJECT_ID      = 1985-069B
CENTER_NAME    = EARTH
REF_FRAME      = TEME
TIME_SYSTEM    = UTC
MEAN_ELEMENT_THEORY = SGP/SGP4

EPOCH          = 2026-01-31T12:26:34.274400
MEAN_MOTION    = 14.86388126
ECCENTRICITY   = .0017717
INCLINATION    = 82.5240
RA_OF_ASC_NODE = 59.8954
ARG_OF_PERICENTER = 319.3483
MEAN_ANOMALY   = 40.6410

EPHEMERIS_TYPE = 0
CLASSIFICATION_TYPE = U
NORAD_CAT_ID   = 15945
ELEMENT_SET_NO = 999
REV_AT_EPOCH   = 16731
BSTAR          = .6274E-4
MEAN_MOTION_DOT = .579E-5
MEAN_MOTION_DDOT = 0

CCSDS_OMM_VERS = 2.0
CREATION_DATE  = 
ORIGINATOR     = 

OBJECT_NAME    = SL-16 R/B
OBJECT_ID      = 1985-097B
CENTER_NAME    = EARTH
REF_FRAME      = TEME
TIME_SYSTEM    = UTC
MEAN_ELEMENT_THEORY = SGP/SGP4

EPOCH          = 2026-01-31T20:25:56.563104
MEAN_MOTION    = 14.16593779
ECCENTRICITY   = .0009242
INCLINATION    = 71.0011
RA_OF_ASC_NODE = 218.1052
ARG_OF_PERICENTER = 303.0636
MEAN_ANOMALY   = 154.1841

EPHEMERIS_TYPE = 0
CLASSIFICATION_TYPE = U
NORAD_CAT_ID   = 16182
ELEMENT_SET_NO = 999
REV_AT_EPOCH   = 8201
BSTAR          = .1633E-3
MEAN_MOTION_DOT = .278E-5
MEAN_MOTION_DDOT = 0

CCSDS_OMM_VERS = 2.0
CREATION_DATE  = 
ORIGINATOR     = 

OBJECT_NAME    = SL-14 R/B
OBJECT_ID      = 1986-006B
CENTER_NAME    = EARTH
REF_FRAME      = TEME
TIME_SYSTEM    = UTC
MEAN_ELEMENT_THEORY = SGP/SGP4

EPOCH          = 2026-01-31T18:35:13.083072
MEAN_MOTION    = 14.86759814
ECCENTRICITY   = .00776
INCLINATION    = 82.5279
RA_OF_ASC_NODE = 294.4804
ARG_OF_PERICENTER = 36.0335
MEAN_ANOMALY   = 324.6077

EPHEMERIS_TYPE = 0
CLASSIFICATION_TYPE = U
NORAD_CAT_ID   = 16496
ELEMENT_SET_NO = 999
REV_AT_EPOCH   = 14372
BSTAR          = .94219E-4
MEAN_MOTION_DOT = .913E-5
MEAN_MOTION_DDOT = 0

CCSDS_OMM_VERS = 2.0
CREATION_DATE  = 
ORIGINATOR     = 

OBJECT_NAME    = COSMOS 1743
OBJECT_ID      = 1986-034A
CENTER_NAME    = EARTH
REF_FRAME      = TEME
TIME_SYSTEM    = UTC
MEAN_ELEMENT_THEORY = SGP/SGP4

EPOCH          = 2026-01-31T16:36:09.925056
MEAN_MOTION    = 15.55845595
ECCENTRICITY   = .0005393
INCLINATION    = 82.5349
RA_OF_ASC_NODE = 112.5753
ARG_OF_PERICENTER = 74.0788
MEAN_ANOMALY   = 286.1060

EPHEMERIS_TYPE = 0
CLASSIFICATION_TYPE = U
NORAD_CAT_ID   = 16719
ELEMENT_SET_NO = 999
REV_AT_EPOCH   = 17449
BSTAR          = .44803E-3
MEAN_MOTION_DOT = .31097E-3
MEAN_MOTION_DDOT = 0

